MEAN_MOTION;ECCENTRICITY;INCLINATION;RA_OF_ASC_NODE;ARG_OF_PERICENTER;MEAN_ANOMALY;BSTAR;MEAN_MOTION_DOT;MEAN_MOTION_DDOT;TYPE
14.78944745;0.0012195;98.3171;281.5759;108.2271;252.0267;3.1119E-5;1.73E-6;0;Amateur
14.78944862;0.0012204;98.3171;281.8556;107.4048;252.8498;3.1075E-5;1.73E-6;0;Amateur
14.78945371;0.0012219;98.317;282.6249;105.2548;255.0014;3.3695E-5;1.93E-6;0;Amateur
14.78945835;0.0012238;98.3169;283.6739;102.3043;257.9538;3.3023E-5;1.88E-6;0;Amateur
14.78946074;0.0012247;98.317;284.0935;101.1104;259.1484;3.3742E-5;1.93E-6;0;Amateur
14.7894634;0.0012259;98.3169;284.7229;99.3246;260.9351;3.3411E-5;1.9E-6;0;Amateur
14.78946837;0.001228;98.3168;285.702;96.5472;263.7136;3.4512E-5;1.99E-6;0;Amateur
14.78947099;0.0012298;98.3168;286.2614;94.9751;265.2864;3.3547E-5;1.91E-6;0;Amateur
14.78947315;0.0012295;98.3167;286.7509;93.6898;266.5718;3.2939E-5;1.87E-6;0;Amateur
14.78947599;0.0012303;98.3166;287.3803;91.9553;268.3067;3.1586E-5;1.77E-6;0;Amateur
14.78947961;0.0012301;98.3166;288.0796;90.0177;270.2443;3.1887E-5;1.79E-6;0;Amateur
14.78948138;0.0012297;98.3166;288.4293;89.0372;271.2247;3.1897E-5;1.79E-6;0;Amateur
14.78948241;0.0012294;98.3165;289.1986;86.9096;273.352;2.6903E-5;1.42E-6;0;Amateur
14.78948342;0.0012291;98.3165;289.4783;86.1364;274.1251;2.6801E-5;1.42E-6;0;Amateur
14.78948588;0.0012289;98.3164;290.1775;84.2224;276.0387;2.6725E-5;1.41E-6;0;Amateur
14.78948722;0.0012287;98.3164;290.5272;83.2322;277.0285;2.6634E-5;1.4E-6;0;Amateur
14.7894919;0.0012276;98.3164;291.2964;81.0772;279.1827;3.0141E-5;1.66E-6;0;Amateur
14.78949299;0.0012273;98.3164;291.5761;80.2773;279.9823;3.005E-5;1.66E-6;0;Amateur
14.78949515;0.001227;98.3164;292.2754;78.3701;281.8885;2.8063E-5;1.51E-6;0;Amateur
14.78949685;0.0012268;98.3163;292.6251;77.3871;282.871;2.9034E-5;1.58E-6;0;Amateur
14.78949798;0.0012261;98.3163;292.9747;76.42;283.8375;2.8304E-5;1.53E-6;0;Amateur
14.78949924;0.0012258;98.3163;293.3943;75.2572;284.9995;2.7715E-5;1.48E-6;0;Amateur
14.78950073;0.0012244;98.3163;293.8838;73.8985;286.3572;2.7737E-5;1.49E-6;0;Amateur
14.78950175;0.0012239;98.3163;294.0236;73.5096;286.7458;2.8438E-5;1.54E-6;0;Amateur
14.78950313;0.0012238;98.3163;294.3732;72.5398;287.7149;2.9128E-5;1.59E-6;0;Amateur
14.7895058;0.0012219;98.3163;295.0725;70.5933;289.6597;2.9701E-5;1.63E-6;0;Amateur
14.7895074;0.0012215;98.3163;295.4221;69.6322;290.6199;3.0653E-5;1.7E-6;0;Amateur
14.7895112;0.00122;98.3162;296.4011;66.8869;293.3625;3.0179E-5;1.67E-6;0;Amateur
14.7895116;0.0012199;98.3162;296.471;66.6944;293.5548;3.0206E-5;1.67E-6;0;Amateur
14.78951456;0.001218;98.3161;297.1003;64.925;295.3223;3.0225E-5;1.67E-6;0;Amateur
14.78951883;0.0012151;98.316;298.1492;61.9894;298.2544;2.9766E-5;1.64E-6;0;Amateur
14.78952291;0.0012116;98.3159;299.198;59.0615;301.1784;2.983E-5;1.64E-6;0;Amateur
14.78952291;0.0012116;98.3159;299.198;59.0615;301.1784;2.983E-5;1.64E-6;0;Amateur
14.7895278;0.0012083;98.3157;300.1769;56.3107;303.9254;3.1842E-5;1.79E-6;0;Amateur
14.78953084;0.0012064;98.3157;300.8062;54.5513;305.6822;3.1709E-5;1.78E-6;0;Amateur
14.78953292;0.0012052;98.3156;301.2257;53.3701;306.8615;3.1974E-5;1.8E-6;0;Amateur
14.78953897;0.0012009;98.3154;302.2745;50.3861;309.8407;3.3073E-5;1.88E-6;0;Amateur
14.78954041;0.0012004;98.3154;302.5542;49.6007;310.6249;3.3066E-5;1.88E-6;0;Amateur
14.78954397;0.0011963;98.3153;303.3233;47.4016;312.8201;3.2769E-5;1.86E-6;0;Amateur
14.78954461;0.0011953;98.3153;303.3932;47.2047;313.0167;3.3263E-5;1.89E-6;0;Amateur
14.78954642;0.0011928;98.3153;303.8826;45.8367;314.3821;3.2441E-5;1.83E-6;0;Amateur
14.78955149;0.0011883;98.3152;304.9314;42.8289;317.3845;3.2741E-5;1.85E-6;0;Amateur
14.78955525;0.0011846;98.3151;305.6305;40.8336;319.376;3.2681E-5;1.85E-6;0;Amateur
14.78955721;0.0011828;98.3151;305.9801;39.823;320.3846;3.2414E-5;1.83E-6;0;Amateur
14.78955971;0.0011809;98.3151;306.3297;38.7989;321.4067;3.3896E-5;1.94E-6;0;Amateur
14.78956367;0.0011773;98.315;307.0288;36.8072;323.3944;3.3727E-5;1.93E-6;0;Amateur
14.78956847;0.0011728;98.315;307.7279;34.7668;325.4306;3.6007E-5;2.1E-6;0;Amateur
14.78957218;0.0011693;98.3149;308.2872;33.1881;327.006;3.8309E-5;2.27E-6;0;Amateur
14.78957323;0.0011678;98.3149;308.497;32.5714;327.6214;3.7964E-5;2.24E-6;0;Amateur
14.78957876;0.0011616;98.3148;309.4758;29.7616;330.4252;3.9294E-5;2.34E-6;0;Amateur
14.78957951;0.0011612;98.3148;309.5457;29.5448;330.6416;3.987E-5;2.38E-6;0;Amateur
14.78958588;0.0011553;98.3147;310.5244;26.707;333.4732;4.078E-5;2.45E-6;0;Amateur
14.78959079;0.0011497;98.3146;311.5731;23.6165;336.557;3.7738E-5;2.22E-6;0;Amateur
14.78959111;0.0011494;98.3146;311.643;23.4244;336.7488;3.7515E-5;2.21E-6;0;Amateur
14.78959606;0.0011425;98.3145;312.6217;20.5554;339.6113;3.6376E-5;2.12E-6;0;Amateur
14.78960012;0.0011349;98.3144;313.6703;17.4676;342.6922;3.3961E-5;1.94E-6;0;Amateur
14.78960654;0.001126;98.3143;314.9286;13.7012;346.4501;3.3813E-5;1.93E-6;0;Amateur
14.7896107;0.0011215;98.3142;315.6976;11.3279;348.8181;3.3381E-5;1.9E-6;0;Amateur
14.78961384;0.0011173;98.3141;316.3268;9.435;350.7068;3.2527E-5;1.84E-6;0;Amateur
14.78961646;0.0011125;98.314;317.0258;7.3238;352.8132;3.0889E-5;1.72E-6;0;Amateur
14.78961828;0.0011102;98.314;317.3754;6.2745;353.8602;3.1053E-5;1.73E-6;0;Amateur
14.78962146;0.001105;98.3139;318.0744;4.11;356.0199;3.1236E-5;1.74E-6;0;Amateur
14.78962309;0.0011024;98.3138;318.4239;3.0422;357.0853;3.1392E-5;1.75E-6;0;Amateur
14.78962494;0.0010993;98.3138;318.8434;1.7339;358.3908;3.1184E-5;1.74E-6;0;Amateur
14.7896278;0.0010947;98.3137;319.4725;359.7938;0.3265;3.1159E-5;1.74E-6;0;Amateur
14.78962997;0.0010918;98.3137;319.8919;358.5028;1.6148;3.1117E-5;1.73E-6;0;Amateur
14.78963394;0.0010852;98.3136;320.8705;355.4817;4.6293;2.9362E-5;1.6E-6;0;Amateur
14.7896352;0.0010833;98.3136;321.1502;354.6164;5.4927;2.9349E-5;1.6E-6;0;Amateur
14.78963936;0.0010783;98.3135;321.8491;352.4402;7.6644;3.1509E-5;1.76E-6;0;Amateur
14.78964052;0.001075;98.3135;322.2685;351.1418;8.96;3.0572E-5;1.69E-6;0;Amateur
14.7896434;0.0010699;98.3135;322.9675;348.9142;11.183;3.0839E-5;1.71E-6;0;Amateur
14.78964569;0.0010661;98.3135;323.5267;347.148;12.9456;3.1133E-5;1.74E-6;0;Amateur
14.7896475;0.0010624;98.3134;324.0859;345.3672;14.7229;3.0154E-5;1.66E-6;0;Amateur
14.78964972;0.001059;98.3134;324.5752;343.8219;16.2652;3.0172E-5;1.66E-6;0;Amateur
14.78965345;0.0010533;98.3134;325.414;341.1991;18.8829;3.0068E-5;1.66E-6;0;Amateur
14.78965444;0.0010523;98.3134;325.6236;340.5282;19.5525;3.0064E-5;1.66E-6;0;Amateur
14.78965715;0.0010484;98.3133;326.3226;338.2756;21.8008;2.9628E-5;1.62E-6;0;Amateur
14.78965878;0.0010462;98.3133;326.6721;337.1655;22.9088;2.999E-5;1.65E-6;0;Amateur
14.78966145;0.0010412;98.3132;327.371;334.8843;25.1859;3.0049E-5;1.66E-6;0;Amateur
14.78966292;0.0010389;98.3132;327.7205;333.7445;26.3237;3.0367E-5;1.68E-6;0;Amateur
14.78966526;0.0010349;98.3131;328.2797;331.9201;28.145;3.0925E-5;1.72E-6;0;Amateur
14.78966968;0.0010289;98.3129;329.1184;329.1808;30.8797;3.2497E-5;1.84E-6;0;Amateur
14.78967097;0.0010265;98.3129;329.3979;328.2875;31.7716;3.2606E-5;1.84E-6;0;Amateur
14.78967538;0.0010215;98.3127;330.1667;325.7524;34.3026;3.3388E-5;1.9E-6;0;Amateur
14.78967538;0.0010215;98.3127;330.1667;325.7524;34.3026;3.3388E-5;1.9E-6;0;Amateur
14.78967661;0.0010193;98.3127;330.4463;324.8387;35.2149;3.3148E-5;1.88E-6;0;Amateur
14.78967955;0.0010148;98.3126;331.2151;322.2566;37.7931;3.1425E-5;1.76E-6;0;Amateur
14.78968444;0.0010084;98.3124;332.2634;318.7157;41.3289;3.1787E-5;1.78E-6;0;Amateur
14.78968491;0.0010082;98.3124;332.3333;318.47;41.5743;3.2033E-5;1.8E-6;0;Amateur
14.78968983;0.0010017;98.3122;333.3816;314.9131;45.1266;3.1947E-5;1.8E-6;0;Amateur
14.7896954;0.0009949;98.3121;334.5696;310.9091;49.1257;3.0416E-5;1.68E-6;0;Amateur
14.78970125;0.0009899;98.312;335.618;307.3448;52.686;3.0692E-5;1.7E-6;0;Amateur
14.78970577;0.0009845;98.3119;336.7361;303.4921;56.5348;2.8745E-5;1.56E-6;0;Amateur
14.78971025;0.0009815;98.3118;337.5048;300.8133;59.211;3.1586E-5;1.77E-6;0;Amateur
14.78971193;0.000979;98.3118;338.0639;298.8991;61.1237;3.0029E-5;1.65E-6;0;Amateur
14.78971482;0.0009773;98.3117;338.5531;297.1872;62.8342;3.1085E-5;1.73E-6;0;Amateur
14.78972027;0.0009748;98.3117;339.4616;294.0626;65.9564;3.275E-5;1.86E-6;0;Amateur
14.78972139;0.0009733;98.3117;339.7411;293.0901;66.9283;3.232E-5;1.82E-6;0;Amateur
14.78972872;0.0009713;98.3116;340.5098;290.4083;69.6083;3.9396E-5;2.35E-6;0;Amateur
14.78972771;0.0009701;98.3116;340.7893;289.4295;70.5867;3.3921E-5;1.94E-6;0;Amateur
14.78973176;0.0009688;98.3115;341.558;286.7341;73.2806;3.4606E-5;1.99E-6;0;Amateur
14.78973343;0.000968;98.3115;341.8375;285.7428;74.2714;3.5388E-5;2.05E-6;0;Amateur
14.78973938;0.0009658;98.3113;342.5363;283.229;76.7843;4.041E-5;2.42E-6;0;Amateur
14.78974624;0.0009642;98.3113;343.235;280.7586;79.2538;4.6216E-5;2.85E-6;0;Amateur
14.78974805;0.000964;98.3112;343.5145;279.7912;80.221;4.6016E-5;2.84E-6;0;Amateur
14.7897526;0.0009622;98.3111;344.5627;276.0957;83.9157;4.0194E-5;2.41E-6;0;Amateur
14.78976017;0.0009621;98.3109;345.6108;272.413;87.5978;4.1435E-5;2.5E-6;0;Amateur
14.78975992;0.0009614;98.3109;345.9602;271.1601;88.8507;3.6279E-5;2.12E-6;0;Amateur
14.78976442;0.0009612;98.3107;346.7987;268.1839;91.827;3.5186E-5;2.04E-6;0;Amateur
14.78976951;0.0009612;98.3106;347.8468;264.4841;95.5273;3.2933E-5;1.87E-6;0;Amateur
14.78977505;0.0009615;98.3105;348.7551;261.2617;98.7505;3.3106E-5;1.88E-6;0;Amateur
14.78977725;0.0009618;98.3104;349.384;259.039;100.9738;2.9868E-5;1.64E-6;0;Amateur
14.78978016;0.000963;98.3103;350.0827;256.6311;103.3825;2.865E-5;1.55E-6;0;Amateur
14.7897813;0.0009633;98.3103;350.4321;255.3633;104.6509;2.7404E-5;1.46E-6;0;Amateur
14.78978205;0.0009643;98.3103;350.7814;254.1583;105.8564;2.598E-5;1.36E-6;0;Amateur
14.78978314;0.0009648;98.3103;350.9212;253.6753;106.3397;2.6917E-5;1.42E-6;0;Amateur
14.78978487;0.0009656;98.3103;351.4802;251.7148;108.3012;2.6231E-5;1.37E-6;0;Amateur
14.78978645;0.0009668;98.3102;351.9693;249.9832;110.0337;2.5693E-5;1.33E-6;0;Amateur
